NORAD_CAT_ID,OBJECT_NAME,OBJECT_TYPE,EPOCH,MEAN_MOTION,ECCENTRICITY,INCLINATION,RA_OF_ASC_NODE,ARG_OF_PERICENTER,MEAN_ANOMALY,BSTAR,MEAN_MOTION_DOT,MEAN_MOTION_DDOT,TLE_LINE0,TLE_LINE1,TLE_LINE2,SEMIMAJOR_AXIS,PERIOD,APOGEE,PERIGEE,DECAYED
228,DELTA 1 DEB (YO),DEBRIS,2022-02-12 06:04:46,15.02228601,0.0014038,48.4288,45.44300000000001,111.5532,248.68900000000002,0.00023266,2.8499999999999998e-05,0.0,0 DELTA 1 DEB (YO),1 00228U 62002C   22043.25331485  .00002850  00000-0  23266-3 0  9991,2 00228  48.4288  45.4430 0014038 111.5532 248.6890 15.02228601202112,6938.163000000001,95.85799999999999,569.768,550.288,0.0
228,DELTA 1 DEB (YO),DEBRIS,2022-02-12 20:26:46,15.02231362,0.0014044,48.4288,42.4948,114.2568,245.9825,0.00022051,2.687e-05,0.0,0 DELTA 1 DEB (YO),1 00228U 62002C   22043.85193118  .00002687  00000-0  22051-3 0  9995,2 00228  48.4288  42.4948 0014044 114.2568 245.9825 15.02231362202205,6938.154,95.85700000000001,569.763,550.275,0.0
228,DELTA 1 DEB (YO),DEBRIS,2022-02-13 06:01:27,15.022337,0.0014059,48.4288,40.5292,116.0421,244.1952,0.00021791,2.653e-05,0.0,0 DELTA 1 DEB (YO),1 00228U 62002C   22044.25100754  .00002653  00000-0  21791-3 0  9997,2 00228  48.4288  40.5292 0014059 116.0421 244.1952 15.02233700202266,6938.147,95.85700000000001,569.7669999999998,550.258,0.0
228,DELTA 1 DEB (YO),DEBRIS,2022-02-14 01:10:47,15.02238115,0.0014085999999999999,48.4287,36.5982,119.7118,240.521,0.00021084,2.558e-05,0.0,0 DELTA 1 DEB (YO),1   228U 62002C   22045.04915879  .00002558  00000-0  21084-3 0  9996,2   228  48.4287  36.5982 0014086 119.7118 240.5210 15.02238115226515,6938.134,95.85700000000001,569.7719999999998,550.226,0.0
228,DELTA 1 DEB (YO),DEBRIS,2022-02-14 05:58:07,15.02238665,0.0014093,48.4287,35.6153,120.6628,239.5687,0.00019446,2.339e-05,0.0,0 DELTA 1 DEB (YO),1 00228U 62002C   22045.24869610  .00002339  00000-0  19446-3 0  9995,2 00228  48.4287  35.6153 0014093 120.6628 239.5687 15.02238665202419,6938.132,95.85700000000001,569.775,550.219,0.0
228,DELTA 1 DEB (YO),DEBRIS,2022-02-15 05:54:47,15.02242728,0.0014125,48.4288,30.7014,125.3188,234.9059,0.00015939,1.869e-05,0.0,0 DELTA 1 DEB (YO),1 00228U 62002C   22046.24638146  .00001869  00000-0  15939-3 0  9994,2 00228  48.4288  30.7014 0014125 125.3188 234.9059 15.02242728202564,6938.119000000002,95.85700000000001,569.784,550.184,0.0
228,DELTA 1 DEB (YO),DEBRIS,2022-02-15 20:16:47,15.022449100000001,0.0014140000000000001,48.428999999999995,27.7531,128.0782,232.1419,0.00013784,1.581e-05,0.0,0 DELTA 1 DEB (YO),1 00228U 62002C   22046.84499119  .00001581  00000-0  13784-3 0  9992,2 00228  48.4290  27.7531 0014140 128.0782 232.1419 15.02244910202659,6938.113,95.85700000000001,569.788,550.1669999999998,0.0
228,DELTA 1 DEB (YO),DEBRIS,2022-02-16 05:51:27,15.02247007,0.0014154000000000007,48.428999999999995,25.7876,129.8853,230.3318,0.00014525,1.6800000000000002e-05,0.0,0 DELTA 1 DEB (YO),1   228U 62002C   22047.24406393  .00001680  00000-0  14525-3 0  9993,2   228  48.4290  25.7876 0014154 129.8853 230.3318 15.02247007226847,6938.106,95.85600000000001,569.7909999999998,550.151,0.0
228,DELTA 1 DEB (YO),DEBRIS,2022-02-16 20:13:26,15.02250359,0.001417,48.4292,22.8394,132.6768,227.5352,0.00016086,1.889e-05,0.0,0 DELTA 1 DEB (YO),1 00228U 62002C   22047.84267185  .00001889  00000-0  16086-3 0  9998,2 00228  48.4292  22.8394 0014170 132.6768 227.5352 15.02250359202807,6938.096,95.85600000000001,569.7919999999998,550.13,0.0
228,DELTA 1 DEB (YO),DEBRIS,2022-02-17 07:23:53,15.02252247,0.0014196,48.4292,20.5463,134.8356,225.3724,0.0001581,1.852e-05,0.0,0 DELTA 1 DEB (YO),1 00228U 62002C   22048.30825509  .00001852  00000-0  15810-3 0  9994,2 00228  48.4292  20.5463 0014196 134.8356 225.3724 15.02252247202878,6938.09,95.85600000000001,569.804,550.106,0.0
228,DELTA 1 DEB (YO),DEBRIS,2022-02-17 20:10:06,15.02253251,0.0014207,48.4293,17.9256,137.261,222.9422,0.00013382,1.527e-05,0.0,0 DELTA 1 DEB (YO),1 00228U 62002C   22048.84034981  .00001527  00000-0  13382-3 0  9990,2 00228  48.4293  17.9256 0014207 137.2610 222.9422 15.02253251202955,6938.0869999999995,95.85600000000001,569.809,550.095,0.0
228,DELTA 1 DEB (YO),DEBRIS,2022-02-18 04:08:59,15.02254706,0.0014227999999999999,48.4293,16.2877,138.7887,221.4113,0.00013957,1.604e-05,0.0,0 DELTA 1 DEB (YO),1 00228U 62002C   22049.17290862  .00001604  00000-0  13957-3 0  9993,2 00228  48.4293  16.2877 0014228 138.7887 221.4113 15.02254706203005,6938.0819999999985,95.85600000000001,569.819,550.076,0.0
228,DELTA 1 DEB (YO),DEBRIS,2022-02-18 18:30:58,15.022570499999999,0.0014242,48.4294,13.3394,141.4656,218.7287,0.00014113,1.625e-05,0.0,0 DELTA 1 DEB (YO),1   228U 62002C   22049.77151364  .00001625  00000-0  14113-3 0  9990,2   228  48.4294  13.3394 0014242 141.4656 218.7287 15.02257050227225,6938.075,95.85600000000001,569.821,550.059,0.0
228,DELTA 1 DEB (YO),DEBRIS,2022-02-18 20:06:45,15.02257352,0.0014246999999999999,48.4293,13.0118,141.7633,218.4304,0.00014116,1.626e-05,0.0,0 DELTA 1 DEB (YO),1 00228U 62002C   22049.83802519  .00001626  00000-0  14116-3 0  9996,2 00228  48.4293  13.0118 0014247 141.7633 218.4304 15.02257352203101,6938.074000000001,95.85600000000001,569.8240000000002,550.055,0.0
228,DELTA 1 DEB (YO),DEBRIS,2022-02-19 13:40:17,15.02260593,0.0014272,48.4294,9.4084,145.1116,215.0746,0.00014978,1.741e-05,0.0,0 DELTA 1 DEB (YO),1 00228U 62002C   22050.56965212  .00001741  00000-0  14978-3 0  9992,2 00228  48.4294   9.4084 0014272 145.1116 215.0746 15.02260593203211,6938.064,95.85600000000001,569.831,550.0269999999998,0.0
228,DELTA 1 DEB (YO),DEBRIS,2022-02-19 20:03:24,15.02261691,0.0014285,48.4306,8.0981,146.2417,213.9419,0.00014582,1.688e-05,0.0,0 DELTA 1 DEB (YO),1 00228U 62002C   22050.83569774  .00001688  00000-0  14582-3 0  9996,2 00228  48.4306   8.0981 0014285 146.2417 213.9419 15.02261691203254,6938.061,95.855,569.837,550.015,0.0
228,DELTA 1 DEB (YO),DEBRIS,2022-02-20 04:02:17,15.02261798,0.0014306,48.4306,6.4601,147.7496,212.4305,0.00012916,1.465e-05,0.0,0 DELTA 1 DEB (YO),1   228U 62002C   22051.16825480  .00001465  00000-0  12916-3 0  9994,2   228  48.4306   6.4601 0014306 147.7496 212.4305 15.02261798227434,6938.061,95.855,569.851,550.0,0.0
228,DELTA 1 DEB (YO),DEBRIS,2022-02-20 13:36:56,15.02264436,0.0014312,48.4306,4.4947,149.6178,210.5578,0.00014344,1.657e-05,0.0,0 DELTA 1 DEB (YO),1 00228U 62002C   22051.56732252  .00001657  00000-0  14344-3 0  9992,2 00228  48.4306   4.4947 0014312 149.6178 210.5578 15.02264436203369,6938.053000000001,95.855,569.847,549.988,0.0
228,DELTA 1 DEB (YO),DEBRIS,2022-02-20 21:35:49,15.02264558,0.0014342,48.4306,2.8568,151.0861,209.08599999999998,0.00012856,1.457e-05,0.0,0 DELTA 1 DEB (YO),1 00228U 62002C   22051.89987918  .00001457  00000-0  12856-3 0  9993,2 00228  48.4306   2.8568 0014342 151.0861 209.0860 15.02264558203417,6938.052,95.855,569.868,549.967,0.0
228,DELTA 1 DEB (YO),DEBRIS,2022-02-21 02:23:09,15.0226521,0.0014349999999999999,48.4306,1.8741,151.9845,208.1854,0.00012733,1.441e-05,0.0,0 DELTA 1 DEB (YO),1 00228U 62002C   22052.09941291  .00001441  00000-0  12733-3 0  9997,2 00228  48.4306   1.8741 0014350 151.9845 208.1854 15.02265210203441,6938.05,95.855,569.871,549.9590000000002,0.0
228,DELTA 1 DEB (YO),DEBRIS,2022-02-22 00:44:01,15.02269335,0.0014388,48.4307,357.2878,156.1795,203.9797,0.00013592,1.556e-05,0.0,0 DELTA 1 DEB (YO),1   228U 62002C   22053.03056873  .00001556  00000-0  13592-3 0  9996,2   228  48.4307 357.2878 0014388 156.1795 203.9797 15.02269335227710,6938.0369999999975,95.855,569.885,549.92,0.0
228,DELTA 1 DEB (YO),DEBRIS,2022-02-23 02:16:25,15.02272113,0.0014431,48.4307,352.0465,160.9582,199.1884,0.00012011,1.344e-05,0.0,0 DELTA 1 DEB (YO),1   228U 62002C   22054.09474462  .00001344  00000-0  12011-3 0  9991,2   228  48.4307 352.0465 0014431 160.9582 199.1884 15.02272113227879,6938.029,95.855,569.906,549.882,0.0
228,DELTA 1 DEB (YO),DEBRIS,2022-02-23 19:49:57,15.02274821,0.0014465,48.4307,348.4429,164.2932,195.8443,0.00012023,1.346e-05,0.0,0 DELTA 1 DEB (YO),1 00228U 62002C   22054.82636368  .00001346  00000-0  12023-3 0  9992,2 00228  48.4307 348.4429 0014465 164.2932 195.8443 15.02274821203855,6938.021,95.855,569.9209999999998,549.85,0.0
228,DELTA 1 DEB (YO),DEBRIS,2022-02-24 11:47:43,15.02277303,0.0014487999999999999,48.4307,345.1672,167.2843,192.8449,0.00012085,1.354e-05,0.0,0 DELTA 1 DEB (YO),1 00228U 62002C   22055.49147082  .00001354  00000-0  12085-3 0  9993,2 00228  48.4307 345.1672 0014488 167.2843 192.8449 15.02277303203950,6938.013000000001,95.854,569.93,549.826,0.0
228,DELTA 1 DEB (YO),DEBRIS,2022-02-24 21:22:22,15.02277692,0.001452,48.4307,343.2015,169.08900000000003,191.0352,0.00010939,1.201e-05,0.0,0 DELTA 1 DEB (YO),1 00228U 62002C   22055.89053522  .00001201  00000-0  10939-3 0  9999,2 00228  48.4307 343.2015 0014520 169.0890 191.0352 15.02277692204012,6938.012,95.854,569.951,549.803,0.0
228,DELTA 1 DEB (YO),DEBRIS,2022-02-25 03:45:28,15.02279528,0.0014535,48.4307,341.8913,170.3287,189.7919,0.00012171,1.366e-05,0.0,0 DELTA 1 DEB (YO),1 00228U 62002C   22056.15657744  .00001366  00000-0  12171-3 0  9997,2 00228  48.4307 341.8913 0014535 170.3287 189.7919 15.02279528204051,6938.0059999999985,95.854,569.955,549.7869999999998,0.0
228,DELTA 1 DEB (YO),DEBRIS,2022-02-25 19:43:13,15.02280907,0.0014567,48.4306,338.6153,173.3298,186.7822,0.00011166,1.231e-05,0.0,0 DELTA 1 DEB (YO),1 00228U 62002C   22056.82168321  .00001231  00000-0  11166-3 0  9993,2 00228  48.4306 338.6153 0014567 173.3298 186.7822 15.02280907204154,6938.0019999999995,95.854,569.9730000000002,549.76,0.0
228,DELTA 1 DEB (YO),DEBRIS,2022-02-26 00:30:32,15.02281357,0.001458,48.4306,337.6326,174.2239,185.8856,0.00010982,1.207e-05,0.0,0 DELTA 1 DEB (YO),1   228U 62002C   22057.02121489  .00001207  00000-0  10982-3 0  9998,2   228  48.4306 337.6326 0014580 174.2239 185.8856 15.02281357228316,6938.0,95.854,569.981,549.75,0.0
